satname,norad_id,inclination_deg,eccentricity,mean_motion_rev_per_day,perigee_km,apogee_km,l1,l2
STARLINK-1540,46051,53.1606,0.0001048,15.3019711,474.50546625078186,475.9419306531763,1 46051U 20055AA  26100.03501754  .00001977  00000+0  78851-4 0  9998,2 46051  53.1606 328.2482 0001048  83.5701 276.5419 15.30197110313880
STARLINK-1541,46052,53.1599,0.0001415,15.37413228,452.79520862674144,454.7286360217586,1 46052U 20055AB  26100.58335647  .00111599  00000+0  29649-2 0  9996,2 46052  53.1599 325.5639 0001415  84.6819 206.2266 15.37413228  5804
STARLINK-1543,46053,53.1614,0.0001554,15.30194949,474.1651375811207,476.2951640915999,1 46053U 20055AC  26100.35739723  .00001532  00000+0  63848-4 0  9991,2 46053  53.1614 326.8149 0001554  99.0194 261.0983 15.30194949313922
STARLINK-1548,46054,53.1619,0.0001364,15.30203267,474.2705188718255,476.14011065529303,1 46054U 20055AD  26100.36476355  .00001017  00000+0  46471-4 0  9993,2 46054  53.1619 326.7862 0001364  82.4751 277.6405 15.30203267313929
STARLINK-1554,46055,53.1608,0.0001086,15.30215117,474.42566402082866,475.91420228670904,1 46055U 20055AE  26100.36265726  .00000565  00000+0  31181-4 0  9991,2 46055  53.1608 326.9209 0001086  66.9474 293.1641 15.30215117313927
STARLINK-1564,46058,53.1615,0.0001298,15.30185708,474.3681724496637,476.14731372496954,1 46058U 20055AH  26100.36063285  .00002259  00000+0  88402-4 0  9990,2 46058  53.1615 327.2612 0001298  90.2877 269.8273 15.30185708313914
STARLINK-1570,46059,53.1594,0.000112,15.3020303,474.4384479819046,475.9735968189216,1 46059U 20055AJ  26100.32473362  .00002505  00000+0  96678-4 0  9996,2 46059  53.1594 326.9738 0001120 102.3500 257.7626 15.30203030313870
STARLINK-1572,46060,53.1609,0.0001548,15.30178308,474.21892965983807,476.34074751306525,1 46060U 20055AK  26100.34161728 -.00006572  00000+0 -21010-3 0  9997,2 46060  53.1609 327.0957 0001548  89.4523 270.6655 15.30178308313884
STARLINK-1573,46061,53.1595,0.0001327,15.30191742,474.33028333810034,476.14916952129533,1 46061U 20055AL  26099.85173054  .00001704  00000+0  69661-4 0  9991,2 46061  53.1595 329.1190 0001327  74.5805 285.5342 15.30191742313845
STARLINK-1577,46063,53.1607,0.0001259,15.30193509,474.37161097821354,476.09728990943495,1 46063U 20055AN  26100.33526324  .00001620  00000+0  66811-4 0  9992,2 46063  53.1607 326.8450 0001259  88.5971 271.5174 15.30193509313916
STARLINK-1583,46064,53.16,0.0001396,15.30196221,474.26962333131814,476.1830823794353,1 46064U 20055AP  26099.84856497  .00000854  00000+0  40953-4 0  9990,2 46064  53.1600 329.1391 0001396  95.2609 264.8551 15.30196221313834
STARLINK-1536,46070,53.0924,0.0002217,15.18169004,509.84706953874047,512.9018789264155,1 46070U 20055AV  26100.58335647  .00057261  00000+0  27619-2 0  9996,2 46070  53.0924 312.9407 0002217  96.1868  99.3069 15.18169004  5835
STARLINK-1542,46073,53.0552,0.0001522,15.06399369,546.1594535182103,548.2675302079333,1 46073U 20055AY  26100.32385892 -.00000114  00000+0  11263-4 0  9994,2 46073  53.0552 314.6067 0001522  87.7252 272.3911 15.06399369314071
STARLINK-1549,46074,53.0526,0.0001369,15.25337028,488.8333728995249,490.7138068190279,1 46074U 20055AZ  26100.58335647  .00026685  00000+0  10545-2 0  9996,2 46074  53.0526 312.6017 0001369  97.5252  24.0320 15.25337028  5588
STARLINK-1551,46075,53.1371,0.0001381,15.25436789,488.52573629530707,490.42257049587533,1 46075U 20055BA  26100.58335647  .01521184  00000+0  54161-1 0  9993,2 46075  53.1371 312.7919 0001381 134.9687 132.0617 15.25436789  5495
STARLINK-1552,46076,53.1395,0.0001009,15.25762675,487.8033781952099,489.18906477930614,1 46076U 20055BB  26100.58335647  .00975077  00000+0  34745-1 0  9993,2 46076  53.1395 312.7735 0001009 110.9626  26.3764 15.25762675  5834
STARLINK-1559,46077,53.0249,0.0002389,15.33047652,465.0904202214315,468.3608955993823,1 46077U 20055BC  26100.54280068  .00031641  00000+0  98461-3 0  9993,2 46077  53.0249 285.2944 0002389 165.4932 194.6137 15.33047652314460
STARLINK-1566,46079,53.1411,0.0001404,15.26073589,486.5995982543154,488.52748696668095,1 46079U 20055BE  26100.58335647  .00984052  00000+0  34715-1 0  9996,2 46079  53.1411 312.7514 0001404 106.4976 302.7729 15.26073589  5694
STARLINK-1568,46080,53.0593,0.0004383,15.4917404,416.1617807513567,422.12027467044754,1 46080U 20055BF  26100.52091697  .00043569  00000+0  79053-3 0  9991,2 46080  53.0593 240.7749 0004383 242.9743 117.0817 15.49174040315129
STARLINK-1578,46082,53.0965,0.0002056,15.19594025,505.65104437848004,508.48224011617185,1 46082U 20055BH  26100.58335647  .00089658  00000+0  41236-2 0  9995,2 46082  53.0965 312.9034 0002056 121.7436 112.5723 15.19594025  5837
STARLINK-1579,46083,53.1322,0.0001501,15.24687548,490.69266111770867,492.75499333804237,1 46083U 20055BJ  26100.58335647  .01280196  00000+0  46653-1 0  9994,2 46083  53.1322 312.8157 0001501  90.3887   3.2537 15.24687548  5801
STARLINK-1593,46119,53.0371,0.0006103,15.89266342,300.26032219186436,308.4169519544748,1 46119U 20057C   26100.33335648  .00348174  00000+0  11334-2 0  9999,2 46119  53.0371 111.3422 0006103  45.2033 260.6931 15.89266342  6002
STARLINK-1621,46127,53.0375,0.0005942,15.94803938,284.8992175340518,292.8222776572957,1 46127U 20057L   26100.33335648  .00484863  10577-3  12373-2 0  9992,2 46127  53.0375  83.7661 0005942  52.8809 278.4218 15.94803938  5971
STARLINK-1622,46128,53.0207,0.0001888,15.70384561,356.5253617017688,359.06885042021804,1 46128U 20057M   26100.20106997  .00109163  00000+0  86926-3 0  9991,2 46128  53.0207  68.9522 0001888  13.6524 346.4544 15.70384561312307
STARLINK-1623,46129,53.0458,0.0003431,15.59868151,385.71685644210265,390.35980595437104,1 46129U 20057N   26100.30236193  .00132882  00000+0  16018-2 0  9993,2 46129  53.0458 102.9039 0003431 354.3273   5.7699 15.59868151311843
STARLINK-1624,46130,53.0378,0.0008362,15.78941995,327.82490278863315,339.0493393487077,1 46130U 20057P   26100.33335648  .00216498  00000+0  11695-2 0  9995,2 46130  53.0378  75.1717 0008362  78.7829 120.2126 15.78941995  5984
STARLINK-1596,46141,53.0412,0.0002065,15.50273147,414.5249339762386,417.33088278339983,1 46141U 20057AA  26100.20338636  .00096964  00000+0  16719-2 0  9999,2 46141  53.0412  80.1522 0002065  64.3394 295.7827 15.50273147312150
STARLINK-1597,46142,53.0451,0.0004977,15.63906145,373.0247776069127,379.7482303027491,1 46142U 20057AB  26100.00002315  .00170983  00000+0  17525-2 0  9990,2 46142  53.0451 144.4166 0004977 326.8570 122.1121 15.63906145  5860
